[{"OBJECT_NAME":"ESIAFI 1 (COMSTAR 4)","OBJECT_ID":"1981-018A","EPOCH":"2026-03-06T05:06:28.804896","MEAN_MOTION":1.00262594,"ECCENTRICITY":0.00040402,"INCLINATION":8.8985,"RA_OF_ASC_NODE":311.8723,"ARG_OF_PERICENTER":49.801,"MEAN_ANOMALY":310.1817,"EPHEMERIS_TYPE":0,"CLASSIFICATION_TYPE":"U","NORAD_CAT_ID":12309,"ELEMENT_SET_NO":999,"REV_AT_EPOCH":16641,"BSTAR":0,"MEAN_MOTION_DOT":-6.6e-7,"MEAN_MOTION_DDOT":0},{"OBJECT_NAME":"SL-12 R/B(2)","OBJECT_ID":"1980-081F","EPOCH":"2026-03-06T21:25:38.719200","MEAN_MOTION":0.99978612,"ECCENTRICITY":0.0005877,"INCLINATION":6.4191,"RA_OF_ASC_NODE":291.1864,"ARG_OF_PERICENTER":43.6964,"MEAN_ANOMALY":320.2892,"EPHEMERIS_TYPE":0,"CLASSIFICATION_TYPE":"U","NORAD_CAT_ID":12447,"ELEMENT_SET_NO":999,"REV_AT_EPOCH":16336,"BSTAR":0,"MEAN_MOTION_DOT":-9.9e-7,"MEAN_MOTION_DDOT":0},{"OBJECT_NAME":"GOES 5","OBJECT_ID":"1981-049A","EPOCH":"2026-03-07T03:13:36.962976","MEAN_MOTION":1.00210924,"ECCENTRICITY":0.0004648,"INCLINATION":9.5411,"RA_OF_ASC_NODE":316.3256,"ARG_OF_PERICENTER":337.5705,"MEAN_ANOMALY":190.1132,"EPHEMERIS_TYPE":0,"CLASSIFICATION_TYPE":"U","NORAD_CAT_ID":12472,"ELEMENT_SET_NO":999,"REV_AT_EPOCH":12182,"BSTAR":0,"MEAN_MOTION_DOT":-1.89e-6,"MEAN_MOTION_DDOT":0},{"OBJECT_NAME":"APPLE","OBJECT_ID":"1981-057B","EPOCH":"2026-03-06T23:56:40.846272","MEAN_MOTION":1.00038807,"ECCENTRICITY":0.0022139,"INCLINATION":7.2678,"RA_OF_ASC_NODE":297.6313,"ARG_OF_PERICENTER":229.838,"MEAN_ANOMALY":297.2801,"EPHEMERIS_TYPE":0,"CLASSIFICATION_TYPE":"U","NORAD_CAT_ID":12545,"ELEMENT_SET_NO":999,"REV_AT_EPOCH":12136,"BSTAR":0,"MEAN_MOTION_DOT":-2.84e-6,"MEAN_MOTION_DDOT":0},{"OBJECT_NAME":"EKRAN 7","OBJECT_ID":"1981-061A","EPOCH":"2026-03-07T02:24:49.140864","MEAN_MOTION":1.00270668,"ECCENTRICITY":0.000629,"INCLINATION":6.7701,"RA_OF_ASC_NODE":293.9275,"ARG_OF_PERICENTER":44.7512,"MEAN_ANOMALY":322.4796,"EPHEMERIS_TYPE":0,"CLASSIFICATION_TYPE":"U","NORAD_CAT_ID":12564,"ELEMENT_SET_NO":999,"REV_AT_EPOCH":12849,"BSTAR":0,"MEAN_MOTION_DOT":-3.12e-6,"MEAN_MOTION_DDOT":0},{"OBJECT_NAME":"RADUGA 9","OBJECT_ID":"1981-069A","EPOCH":"2026-03-07T02:24:26.676864","MEAN_MOTION":1.00206391,"ECCENTRICITY":3.82e-5,"INCLINATION":6.8319,"RA_OF_ASC_NODE":294.4029,"ARG_OF_PERICENTER":65.5359,"MEAN_ANOMALY":299.4919,"EPHEMERIS_TYPE":0,"CLASSIFICATION_TYPE":"U","NORAD_CAT_ID":12618,"ELEMENT_SET_NO":999,"REV_AT_EPOCH":4632,"BSTAR":0,"MEAN_MOTION_DOT":-2.9e-6,"MEAN_MOTION_DDOT":0},{"OBJECT_NAME":"SBS 2","OBJECT_ID":"1981-096A","EPOCH":"2026-03-06T17:56:38.521248","MEAN_MOTION":1.00141394,"ECCENTRICITY":0.0005051,"INCLINATION":10.4244,"RA_OF_ASC_NODE":322.1079,"ARG_OF_PERICENTER":269.0027,"MEAN_ANOMALY":327.452,"EPHEMERIS_TYPE":0,"CLASSIFICATION_TYPE":"U","NORAD_CAT_ID":12855,"ELEMENT_SET_NO":999,"REV_AT_EPOCH":11758,"BSTAR":0,"MEAN_MOTION_DOT":-3.7e-6,"MEAN_MOTION_DDOT":0},{"OBJECT_NAME":"RADUGA 10","OBJECT_ID":"1981-102A","EPOCH":"2026-03-06T13:04:51.506112","MEAN_MOTION":1.00286443,"ECCENTRICITY":0.00029075,"INCLINATION":6.9478,"RA_OF_ASC_NODE":295.6906,"ARG_OF_PERICENTER":271.0997,"MEAN_ANOMALY":220.3432,"EPHEMERIS_TYPE":0,"CLASSIFICATION_TYPE":"U","NORAD_CAT_ID":12897,"ELEMENT_SET_NO":999,"REV_AT_EPOCH":11631,"BSTAR":0,"MEAN_MOTION_DOT":-2.2e-7,"MEAN_MOTION_DDOT":0},{"OBJECT_NAME":"SATCOM 3R","OBJECT_ID":"1981-114A","EPOCH":"2026-03-06T04:59:34.235232","MEAN_MOTION":1.00097256,"ECCENTRICITY":0.00062998,"INCLINATION":12.2088,"RA_OF_ASC_NODE":332.6049,"ARG_OF_PERICENTER":327.7724,"MEAN_ANOMALY":212.9034,"EPHEMERIS_TYPE":0,"CLASSIFICATION_TYPE":"U","NORAD_CAT_ID":12967,"ELEMENT_SET_NO":999,"REV_AT_EPOCH":12703,"BSTAR":0,"MEAN_MOTION_DOT":-2.02e-6,"MEAN_MOTION_DDOT":0},{"OBJECT_NAME":"EKRAN 2 DEB","OBJECT_ID":"1977-092J","EPOCH":"2026-03-06T20:52:37.820352","MEAN_MOTION":1.00049484,"ECCENTRICITY":0.001513,"INCLINATION":4.5689,"RA_OF_ASC_NODE":276.2314,"ARG_OF_PERICENTER":311.6273,"MEAN_ANOMALY":265.4881,"EPHEMERIS_TYPE":0,"CLASSIFICATION_TYPE":"U","NORAD_CAT_ID":12996,"ELEMENT_SET_NO":999,"REV_AT_EPOCH":8348,"BSTAR":0,"MEAN_MOTION_DOT":6.2e-7,"MEAN_MOTION_DDOT":0},{"OBJECT_NAME":"WESTAR 4","OBJECT_ID":"1982-014A","EPOCH":"2026-03-06T01:49:59.913696","MEAN_MOTION":0.99776719,"ECCENTRICITY":0.0005859,"INCLINATION":12.7439,"RA_OF_ASC_NODE":335.678,"ARG_OF_PERICENTER":311.5669,"MEAN_ANOMALY":233.8482,"EPHEMERIS_TYPE":0,"CLASSIFICATION_TYPE":"U","NORAD_CAT_ID":13069,"ELEMENT_SET_NO":999,"REV_AT_EPOCH":4541,"BSTAR":0,"MEAN_MOTION_DOT":-2.76e-6,"MEAN_MOTION_DDOT":0},{"OBJECT_NAME":"INSAT-1A","OBJECT_ID":"1982-031A","EPOCH":"2026-03-06T23:43:38.777664","MEAN_MOTION":1.00364781,"ECCENTRICITY":0.0015759,"INCLINATION":7.3639,"RA_OF_ASC_NODE":299.2046,"ARG_OF_PERICENTER":54.3902,"MEAN_ANOMALY":251.6476,"EPHEMERIS_TYPE":0,"CLASSIFICATION_TYPE":"U","NORAD_CAT_ID":13129,"ELEMENT_SET_NO":999,"REV_AT_EPOCH":16540,"BSTAR":0,"MEAN_MOTION_DOT":-2.09e-6,"MEAN_MOTION_DDOT":0},{"OBJECT_NAME":"COSMOS 1366","OBJECT_ID":"1982-044A","EPOCH":"2026-03-07T02:18:04.788000","MEAN_MOTION":1.00288815,"ECCENTRICITY":0.0007803,"INCLINATION":8.5331,"RA_OF_ASC_NODE":298.2406,"ARG_OF_PERICENTER":111.0464,"MEAN_ANOMALY":226.076,"EPHEMERIS_TYPE":0,"CLASSIFICATION_TYPE":"U","NORAD_CAT_ID":13177,"ELEMENT_SET_NO":999,"REV_AT_EPOCH":13258,"BSTAR":0,"MEAN_MOTION_DOT":-1.1e-6,"MEAN_MOTION_DDOT":0},{"OBJECT_NAME":"ANIK D1 (TELESAT 6)","OBJECT_ID":"1982-082A","EPOCH":"2026-03-06T14:50:25.484928","MEAN_MOTION":1.00142358,"ECCENTRICITY":0.0008389,"INCLINATION":12.3242,"RA_OF_ASC_NODE":333.6276,"ARG_OF_PERICENTER":340.4573,"MEAN_ANOMALY":224.9647,"EPHEMERIS_TYPE":0,"CLASSIFICATION_TYPE":"U","NORAD_CAT_ID":13431,"ELEMENT_SET_NO":999,"REV_AT_EPOCH":4557,"BSTAR":0,"MEAN_MOTION_DOT":-2.26e-6,"MEAN_MOTION_DDOT":0},{"OBJECT_NAME":"EKRAN 9","OBJECT_ID":"1982-093A","EPOCH":"2026-03-07T00:43:21.370944","MEAN_MOTION":1.00259123,"ECCENTRICITY":0.0028147,"INCLINATION":7.3145,"RA_OF_ASC_NODE":300.4034,"ARG_OF_PERICENTER":7.8529,"MEAN_ANOMALY":331.4408,"EPHEMERIS_TYPE":0,"CLASSIFICATION_TYPE":"U","NORAD_CAT_ID":13554,"ELEMENT_SET_NO":999,"REV_AT_EPOCH":11897,"BSTAR":0,"MEAN_MOTION_DOT":-3.33e-6,"MEAN_MOTION_DDOT":0},{"OBJECT_NAME":"GORIZONT 6","OBJECT_ID":"1982-103A","EPOCH":"2026-03-06T11:20:23.181792","MEAN_MOTION":1.00258583,"ECCENTRICITY":0.00033928,"INCLINATION":7.5625,"RA_OF_ASC_NODE":302.6169,"ARG_OF_PERICENTER":353.4045,"MEAN_ANOMALY":227.4169,"EPHEMERIS_TYPE":0,"CLASSIFICATION_TYPE":"U","NORAD_CAT_ID":13624,"ELEMENT_SET_NO":999,"REV_AT_EPOCH":11991,"BSTAR":0,"MEAN_MOTION_DOT":8.6e-7,"MEAN_MOTION_DDOT":0},{"OBJECT_NAME":"SL-12 R/B(2)","OBJECT_ID":"1982-103E","EPOCH":"2026-03-06T23:07:30.561024","MEAN_MOTION":1.00358678,"ECCENTRICITY":0.0010553,"INCLINATION":7.5217,"RA_OF_ASC_NODE":302.4915,"ARG_OF_PERICENTER":190.48,"MEAN_ANOMALY":146.4334,"EPHEMERIS_TYPE":0,"CLASSIFICATION_TYPE":"U","NORAD_CAT_ID":13630,"ELEMENT_SET_NO":999,"REV_AT_EPOCH":12047,"BSTAR":0,"MEAN_MOTION_DOT":-3.46e-6,"MEAN_MOTION_DDOT":0},{"OBJECT_NAME":"SATCOM C5","OBJECT_ID":"1982-105A","EPOCH":"2026-03-06T09:59:08.988864","MEAN_MOTION":1.0027305,"ECCENTRICITY":0.0006234,"INCLINATION":12.2145,"RA_OF_ASC_NODE":333.1939,"ARG_OF_PERICENTER":17.3579,"MEAN_ANOMALY":217.2003,"EPHEMERIS_TYPE":0,"CLASSIFICATION_TYPE":"U","NORAD_CAT_ID":13631,"ELEMENT_SET_NO":999,"REV_AT_EPOCH":12534,"BSTAR":0,"MEAN_MOTION_DOT":-1.04e-6,"MEAN_MOTION_DDOT":0},{"OBJECT_NAME":"SBS 3","OBJECT_ID":"1982-110B","EPOCH":"2026-03-06T10:34:28.989984","MEAN_MOTION":0.99928283,"ECCENTRICITY":0.00048095,"INCLINATION":12.611,"RA_OF_ASC_NODE":335.0913,"ARG_OF_PERICENTER":99.1488,"MEAN_ANOMALY":101.0297,"EPHEMERIS_TYPE":0,"CLASSIFICATION_TYPE":"U","NORAD_CAT_ID":13651,"ELEMENT_SET_NO":999,"REV_AT_EPOCH":4551,"BSTAR":0,"MEAN_MOTION_DOT":1.01e-6,"MEAN_MOTION_DDOT":0},{"OBJECT_NAME":"ANIK C3 (TELESAT 5)","OBJECT_ID":"1982-110C","EPOCH":"2026-03-04T15:58:37.517664","MEAN_MOTION":0.99900348,"ECCENTRICITY":0.0002323,"INCLINATION":12.5881,"RA_OF_ASC_NODE":334.9129,"ARG_OF_PERICENTER":346.0782,"MEAN_ANOMALY":183.5789,"EPHEMERIS_TYPE":0,"CLASSIFICATION_TYPE":"U","NORAD_CAT_ID":13652,"ELEMENT_SET_NO":999,"REV_AT_EPOCH":4546,"BSTAR":0,"MEAN_MOTION_DOT":-2.76e-6,"MEAN_MOTION_DDOT":0},{"OBJECT_NAME":"RADUGA 12","OBJECT_ID":"1983-028A","EPOCH":"2026-03-06T13:58:32.503296","MEAN_MOTION":1.00249407,"ECCENTRICITY":0.00029936,"INCLINATION":8.4079,"RA_OF_ASC_NODE":306.9997,"ARG_OF_PERICENTER":357.6045,"MEAN_ANOMALY":141.8487,"EPHEMERIS_TYPE":0,"CLASSIFICATION_TYPE":"U","NORAD_CAT_ID":13974,"ELEMENT_SET_NO":999,"REV_AT_EPOCH":16835,"BSTAR":0,"MEAN_MOTION_DOT":-7.1e-7,"MEAN_MOTION_DDOT":0},{"OBJECT_NAME":"SL-12 R/B(2)","OBJECT_ID":"1983-028F","EPOCH":"2026-03-06T19:21:18.440352","MEAN_MOTION":1.00034907,"ECCENTRICITY":0.0023085,"INCLINATION":8.4372,"RA_OF_ASC_NODE":307.0619,"ARG_OF_PERICENTER":223.1569,"MEAN_ANOMALY":340.1189,"EPHEMERIS_TYPE":0,"CLASSIFICATION_TYPE":"U","NORAD_CAT_ID":13983,"ELEMENT_SET_NO":999,"REV_AT_EPOCH":15678,"BSTAR":0,"MEAN_MOTION_DOT":9.6e-7,"MEAN_MOTION_DDOT":0},{"OBJECT_NAME":"SATCOM 1R","OBJECT_ID":"1983-030A","EPOCH":"2026-03-05T16:29:43.800864","MEAN_MOTION":0.99849051,"ECCENTRICITY":0.00040742,"INCLINATION":13.2964,"RA_OF_ASC_NODE":339.2544,"ARG_OF_PERICENTER":110.9849,"MEAN_ANOMALY":66.2094,"EPHEMERIS_TYPE":0,"CLASSIFICATION_TYPE":"U","NORAD_CAT_ID":13984,"ELEMENT_SET_NO":999,"REV_AT_EPOCH":12944,"BSTAR":0,"MEAN_MOTION_DOT":-2.86e-6,"MEAN_MOTION_DDOT":0},{"OBJECT_NAME":"GOES 6","OBJECT_ID":"1983-041A","EPOCH":"2026-03-06T06:35:17.556000","MEAN_MOTION":1.00217834,"ECCENTRICITY":0.00023354,"INCLINATION":10.3545,"RA_OF_ASC_NODE":321.8887,"ARG_OF_PERICENTER":307.3462,"MEAN_ANOMALY":243.7345,"EPHEMERIS_TYPE":0,"CLASSIFICATION_TYPE":"U","NORAD_CAT_ID":14050,"ELEMENT_SET_NO":999,"REV_AT_EPOCH":21498,"BSTAR":0,"MEAN_MOTION_DOT":-7.0e-7,"MEAN_MOTION_DDOT":0}]
